[{"OBJECT_NAME":"STARLINK-5871","OBJECT_ID":"2023-037F","EPOCH":"2026-03-09T22:35:58.157376","MEAN_MOTION":14.98331696,"ECCENTRICITY":0.00028939,"INCLINATION":69.9994,"RA_OF_ASC_NODE":303.8717,"ARG_OF_PERICENTER":270.6396,"MEAN_ANOMALY":89.4432,"EPHEMERIS_TYPE":0,"CLASSIFICATION_TYPE":"U","NORAD_CAT_ID":55919,"ELEMENT_SET_NO":999,"REV_AT_EPOCH":16352,"BSTAR":-9.299257e-6,"MEAN_MOTION_DOT":-2.04e-6,"MEAN_MOTION_DDOT":0},{"OBJECT_NAME":"UNKNOWN","OBJECT_ID":"","EPOCH":"2026-03-09T22:13:37.396992","MEAN_MOTION":14.94079285,"ECCENTRICITY":0.00368591,"INCLINATION":98.4007,"RA_OF_ASC_NODE":57.0532,"ARG_OF_PERICENTER":27.679,"MEAN_ANOMALY":332.6379,"EPHEMERIS_TYPE":0,"CLASSIFICATION_TYPE":"U","NORAD_CAT_ID":270309,"ELEMENT_SET_NO":999,"REV_AT_EPOCH":28085,"BSTAR":0.00073987035,"MEAN_MOTION_DOT":7.947e-5,"MEAN_MOTION_DDOT":0}]
